SKYSAT-A                
1 39418U 13066C   26200.06749304  .00001447  00000+0  84883-4 0  9994
2 39418  97.3798 248.4487 0020838 199.5369 160.5066 15.13126992693304
SKYSAT-B                
1 40072U 14037D   26199.86339235  .00000567  00000+0  68340-4 0  9996
2 40072  98.3856 160.6392 0005859 161.5941 198.5487 14.88096705650679
SKYSAT-C1               
1 41601U 16040C   26200.32193378  .00004607  00000+0  13027-3 0  9991
2 41601  96.9550 230.3079 0000501 204.4557 155.6664 15.36787797562809
SKYSAT-C4               
1 41771U 16058B   26200.30766369  .00009565  00000+0  17513-3 0  9994
2 41771  96.9170 220.7540 0003540 112.6543 247.5084 15.49519373550443
SKYSAT-C5               
1 41772U 16058C   26200.06061523  .00003826  00000+0  11948-3 0  9998
2 41772  97.0451 239.2674 0002954 151.0084 209.1324 15.33749470548631
SKYSAT-C2               
1 41773U 16058D   26200.04838939  .00006875  00000+0  15928-3 0  9999
2 41773  97.0161 220.9571 0000917 329.4128  30.7067 15.42733343549961
SKYSAT-C3               
1 41774U 16058E   26200.03399711  .00013616  00000+0  21335-3 0  9999
2 41774  96.8994 229.6808 0002737 128.8883 231.2616 15.53816943551054
SKYSAT-C11              
1 42987U 17068A   26200.22028465  .00017324  00000+0  22012-3 0  9997
2 42987  97.4391 350.4914 0001423 153.1659 206.9671 15.59466582488238
SKYSAT-C10              
1 42988U 17068B   26199.91074610  .00005899  00000+0  17528-3 0  9994
2 42988  97.4546 337.0854 0001517 111.4677 248.6728 15.35160800487228
SKYSAT-C9               
1 42989U 17068C   26199.90794159  .00006998  00000+0  16462-3 0  9998
2 42989  97.4467 338.3256 0008323  32.6889 327.4872 15.42268411487649
SKYSAT-C8               
1 42990U 17068D   26199.89838995  .00005624  00000+0  15505-3 0  9997
2 42990  97.4564 336.9950 0001259 105.1163 255.0221 15.37534183487185
SKYSAT-C7               
1 42991U 17068E   26199.89299090  .00005570  00000+0  15377-3 0  9992
2 42991  97.4574 337.9814 0005367   8.6859 351.4478 15.37483893487243
SKYSAT-C6               
1 42992U 17068F   26199.91074246  .00004915  00000+0  15086-3 0  9999
2 42992  97.4612 337.8361 0005013  79.9039 280.2769 15.34206948487188
SKYSAT-C12              
1 43797U 18099AR  26200.32159478  .00009467  00000+0  17119-3 0  9993
2 43797  96.9255 222.2860 0005029  61.0315 299.1441 15.49872022426835
